[{"OBJECT_NAME":"CENTAURI-7","OBJECT_ID":"2025-009DD","EPOCH":"2026-03-09T18:21:07.569216","MEAN_MOTION":14.97068612,"ECCENTRICITY":0.00019728,"INCLINATION":97.7123,"RA_OF_ASC_NODE":150.3372,"ARG_OF_PERICENTER":133.1699,"MEAN_ANOMALY":226.9688,"EPHEMERIS_TYPE":0,"CLASSIFICATION_TYPE":"U","NORAD_CAT_ID":62708,"ELEMENT_SET_NO":999,"REV_AT_EPOCH":6258,"BSTAR":0.00048082234,"MEAN_MOTION_DOT":5.487e-5,"MEAN_MOTION_DDOT":0},{"OBJECT_NAME":"STARLINK-34666","OBJECT_ID":"2025-150E","EPOCH":"2026-03-09T13:35:11.011488","MEAN_MOTION":14.98338956,"ECCENTRICITY":0.0003289,"INCLINATION":70.0022,"RA_OF_ASC_NODE":134.9587,"ARG_OF_PERICENTER":265.9377,"MEAN_ANOMALY":94.1406,"EPHEMERIS_TYPE":0,"CLASSIFICATION_TYPE":"U","NORAD_CAT_ID":64794,"ELEMENT_SET_NO":999,"REV_AT_EPOCH":3649,"BSTAR":0.00097315,"MEAN_MOTION_DOT":0.0001154,"MEAN_MOTION_DDOT":0}]
